ISS OBJECT XW           
1 66910U 98067XW  26057.22497846  .00115673  00000+0  11265-2 0  9993
2 66910  51.6264 123.8410 0004357  26.9186 333.2034 15.65373781 13387
ISS OBJECT XX           
1 66911U 98067XX  26057.20366602  .00167232  00000+0  13418-2 0  9997
2 66911  51.6222 122.9394 0006458  20.7246 339.4012 15.69932275 13383
ISS OBJECT XY           
1 66912U 98067XY  26057.19729707  .00070649  00000+0  80918-3 0  9990
2 66912  51.6275 125.1674 0002349  31.0318 329.0814 15.61460528 13359
ISS OBJECT XZ           
1 67683U 98067XZ  26057.19664056  .00033889  00000+0  58122-3 0  9998
2 67683  51.6310 128.9116 0009812 147.9284 212.2304 15.50817458  3002
GXIBA-1                 
1 67684U 98067YA  26057.18421281  .00061352  00000+0  98476-3 0  9991
2 67684  51.6313 128.8311 0011229 138.6988 221.4853 15.52387573  3008
CORAL                   
1 67685U 98067YB  26057.19444469  .00037357  00000+0  63346-3 0  9992
2 67685  51.6313 128.8976 0011723 144.0348 216.1433 15.51067280  3000
ISS OBJECT YC           
1 67686U 98067YC  26057.19204001  .00043263  00000+0  72457-3 0  9995
2 67686  51.6315 128.8828 0007639 113.3007 246.8787 15.51390035  3000
LEOPARD                 
1 67687U 98067YD  26057.19538528  .00037845  00000+0  64535-3 0  9997
2 67687  51.6314 128.9046 0007686 116.8767 243.3009 15.50944840  2923
ISS OBJECT YE           
1 67688U 98067YE  26057.19307292  .00040299  00000+0  67931-3 0  9990
2 67688  51.6319 128.8902 0007596 113.9591 246.2194 15.51240678  2928
CREW DRAGON 12          
1 67796U 26031A   26057.21900081  .00012044  00000+0  23175-3 0  9999
2 67796  51.6320 129.0607 0008349 134.6702 225.4968 15.48304484554524
