CCSDS_OMM_VERS = 2.0
CREATION_DATE  = 
ORIGINATOR     = 

OBJECT_NAME    = ISS OBJECT XW
OBJECT_ID      = 1998-067XW
CENTER_NAME    = EARTH
REF_FRAME      = TEME
TIME_SYSTEM    = UTC
MEAN_ELEMENT_THEORY = SGP/SGP4

EPOCH          = 2026-02-26T05:23:58.138944
MEAN_MOTION    = 15.65373781
ECCENTRICITY   = .00043572
INCLINATION    = 51.6264
RA_OF_ASC_NODE = 123.8410
ARG_OF_PERICENTER = 26.9186
MEAN_ANOMALY   = 333.2034

EPHEMERIS_TYPE = 0
CLASSIFICATION_TYPE = U
NORAD_CAT_ID   = 66910
ELEMENT_SET_NO = 999
REV_AT_EPOCH   = 1338
BSTAR          = .11264824E-2
MEAN_MOTION_DOT = .115673E-2
MEAN_MOTION_DDOT = 0

CCSDS_OMM_VERS = 2.0
CREATION_DATE  = 
ORIGINATOR     = 

OBJECT_NAME    = ISS OBJECT XX
OBJECT_ID      = 1998-067XX
CENTER_NAME    = EARTH
REF_FRAME      = TEME
TIME_SYSTEM    = UTC
MEAN_ELEMENT_THEORY = SGP/SGP4

EPOCH          = 2026-02-26T04:53:16.744128
MEAN_MOTION    = 15.69932275
ECCENTRICITY   = .00064589
INCLINATION    = 51.6222
RA_OF_ASC_NODE = 122.9394
ARG_OF_PERICENTER = 20.7246
MEAN_ANOMALY   = 339.4012

EPHEMERIS_TYPE = 0
CLASSIFICATION_TYPE = U
NORAD_CAT_ID   = 66911
ELEMENT_SET_NO = 999
REV_AT_EPOCH   = 1338
BSTAR          = .13418158E-2
MEAN_MOTION_DOT = .167232E-2
MEAN_MOTION_DDOT = 0

CCSDS_OMM_VERS = 2.0
CREATION_DATE  = 
ORIGINATOR     = 

OBJECT_NAME    = ISS OBJECT XY
OBJECT_ID      = 1998-067XY
CENTER_NAME    = EARTH
REF_FRAME      = TEME
TIME_SYSTEM    = UTC
MEAN_ELEMENT_THEORY = SGP/SGP4

EPOCH          = 2026-02-26T04:44:06.466848
MEAN_MOTION    = 15.61460528
ECCENTRICITY   = .00023491
INCLINATION    = 51.6275
RA_OF_ASC_NODE = 125.1674
ARG_OF_PERICENTER = 31.0318
MEAN_ANOMALY   = 329.0814

EPHEMERIS_TYPE = 0
CLASSIFICATION_TYPE = U
NORAD_CAT_ID   = 66912
ELEMENT_SET_NO = 999
REV_AT_EPOCH   = 1335
BSTAR          = .80917557E-3
MEAN_MOTION_DOT = .70649E-3
MEAN_MOTION_DDOT = 0

CCSDS_OMM_VERS = 2.0
CREATION_DATE  = 
ORIGINATOR     = 

OBJECT_NAME    = ISS OBJECT XZ
OBJECT_ID      = 1998-067XZ
CENTER_NAME    = EARTH
REF_FRAME      = TEME
TIME_SYSTEM    = UTC
MEAN_ELEMENT_THEORY = SGP/SGP4

EPOCH          = 2026-02-26T04:43:09.744384
MEAN_MOTION    = 15.50817458
ECCENTRICITY   = .00098127
INCLINATION    = 51.6310
RA_OF_ASC_NODE = 128.9116
ARG_OF_PERICENTER = 147.9284
MEAN_ANOMALY   = 212.2304

EPHEMERIS_TYPE = 0
CLASSIFICATION_TYPE = U
NORAD_CAT_ID   = 67683
ELEMENT_SET_NO = 999
REV_AT_EPOCH   = 300
BSTAR          = .58122046E-3
MEAN_MOTION_DOT = .33889E-3
MEAN_MOTION_DDOT = 0

CCSDS_OMM_VERS = 2.0
CREATION_DATE  = 
ORIGINATOR     = 

OBJECT_NAME    = GXIBA-1
OBJECT_ID      = 1998-067YA
CENTER_NAME    = EARTH
REF_FRAME      = TEME
TIME_SYSTEM    = UTC
MEAN_ELEMENT_THEORY = SGP/SGP4

EPOCH          = 2026-02-26T04:25:15.986784
MEAN_MOTION    = 15.52387573
ECCENTRICITY   = .0011229
INCLINATION    = 51.6313
RA_OF_ASC_NODE = 128.8311
ARG_OF_PERICENTER = 138.6988
MEAN_ANOMALY   = 221.4853

EPHEMERIS_TYPE = 0
CLASSIFICATION_TYPE = U
NORAD_CAT_ID   = 67684
ELEMENT_SET_NO = 999
REV_AT_EPOCH   = 300
BSTAR          = .98476252E-3
MEAN_MOTION_DOT = .61352E-3
MEAN_MOTION_DDOT = 0

CCSDS_OMM_VERS = 2.0
CREATION_DATE  = 
ORIGINATOR     = 

OBJECT_NAME    = CORAL
OBJECT_ID      = 1998-067YB
CENTER_NAME    = EARTH
REF_FRAME      = TEME
TIME_SYSTEM    = UTC
MEAN_ELEMENT_THEORY = SGP/SGP4

EPOCH          = 2026-02-26T04:40:00.021216
MEAN_MOTION    = 15.51067280
ECCENTRICITY   = .00117239
INCLINATION    = 51.6313
RA_OF_ASC_NODE = 128.8976
ARG_OF_PERICENTER = 144.0348
MEAN_ANOMALY   = 216.1433

EPHEMERIS_TYPE = 0
CLASSIFICATION_TYPE = U
NORAD_CAT_ID   = 67685
ELEMENT_SET_NO = 999
REV_AT_EPOCH   = 300
BSTAR          = .63345627E-3
MEAN_MOTION_DOT = .37357E-3
MEAN_MOTION_DDOT = 0

CCSDS_OMM_VERS = 2.0
CREATION_DATE  = 
ORIGINATOR     = 

OBJECT_NAME    = ISS OBJECT YC
OBJECT_ID      = 1998-067YC
CENTER_NAME    = EARTH
REF_FRAME      = TEME
TIME_SYSTEM    = UTC
MEAN_ELEMENT_THEORY = SGP/SGP4

EPOCH          = 2026-02-26T04:36:32.256864
MEAN_MOTION    = 15.51390035
ECCENTRICITY   = .00076397
INCLINATION    = 51.6315
RA_OF_ASC_NODE = 128.8828
ARG_OF_PERICENTER = 113.3007
MEAN_ANOMALY   = 246.8787

EPHEMERIS_TYPE = 0
CLASSIFICATION_TYPE = U
NORAD_CAT_ID   = 67686
ELEMENT_SET_NO = 999
REV_AT_EPOCH   = 300
BSTAR          = .72456504E-3
MEAN_MOTION_DOT = .43263E-3
MEAN_MOTION_DDOT = 0

CCSDS_OMM_VERS = 2.0
CREATION_DATE  = 
ORIGINATOR     = 

OBJECT_NAME    = LEOPARD
OBJECT_ID      = 1998-067YD
CENTER_NAME    = EARTH
REF_FRAME      = TEME
TIME_SYSTEM    = UTC
MEAN_ELEMENT_THEORY = SGP/SGP4

EPOCH          = 2026-02-26T04:41:21.288192
MEAN_MOTION    = 15.50944840
ECCENTRICITY   = .00076868
INCLINATION    = 51.6314
RA_OF_ASC_NODE = 128.9046
ARG_OF_PERICENTER = 116.8767
MEAN_ANOMALY   = 243.3009

EPHEMERIS_TYPE = 0
CLASSIFICATION_TYPE = U
NORAD_CAT_ID   = 67687
ELEMENT_SET_NO = 999
REV_AT_EPOCH   = 292
BSTAR          = .64535195E-3
MEAN_MOTION_DOT = .37845E-3
MEAN_MOTION_DDOT = 0

CCSDS_OMM_VERS = 2.0
CREATION_DATE  = 
ORIGINATOR     = 

OBJECT_NAME    = ISS OBJECT YE
OBJECT_ID      = 1998-067YE
CENTER_NAME    = EARTH
REF_FRAME      = TEME
TIME_SYSTEM    = UTC
MEAN_ELEMENT_THEORY = SGP/SGP4

EPOCH          = 2026-02-26T04:38:01.500288
MEAN_MOTION    = 15.51240678
ECCENTRICITY   = .0007596
INCLINATION    = 51.6319
RA_OF_ASC_NODE = 128.8902
ARG_OF_PERICENTER = 113.9591
MEAN_ANOMALY   = 246.2194

EPHEMERIS_TYPE = 0
CLASSIFICATION_TYPE = U
NORAD_CAT_ID   = 67688
ELEMENT_SET_NO = 999
REV_AT_EPOCH   = 292
BSTAR          = .67931072E-3
MEAN_MOTION_DOT = .40299E-3
MEAN_MOTION_DDOT = 0

CCSDS_OMM_VERS = 2.0
CREATION_DATE  = 
ORIGINATOR     = 

OBJECT_NAME    = CREW DRAGON 12
OBJECT_ID      = 2026-031A
CENTER_NAME    = EARTH
REF_FRAME      = TEME
TIME_SYSTEM    = UTC
MEAN_ELEMENT_THEORY = SGP/SGP4

EPOCH          = 2026-02-26T05:15:21.669984
MEAN_MOTION    = 15.48304484
ECCENTRICITY   = .00083492
INCLINATION    = 51.6320
RA_OF_ASC_NODE = 129.0607
ARG_OF_PERICENTER = 134.6702
MEAN_ANOMALY   = 225.4968

EPHEMERIS_TYPE = 0
CLASSIFICATION_TYPE = U
NORAD_CAT_ID   = 67796
ELEMENT_SET_NO = 999
REV_AT_EPOCH   = 55452
BSTAR          = .2317509E-3
MEAN_MOTION_DOT = .12044E-3
MEAN_MOTION_DDOT = 0

